[
{"Address Line 1": "02580 Amanda Forks Apt. 575", "Address Line 2": "Apt. 278", "City": "Lopezborough", "Zipcode": "34314", "Company Website": "montgomery.com", "Company Description": "harness clicks-and-mortar models", "Phone": "(488)824-8210", "State": "Oklahoma", "Company Name": "Palmer Group"},
{"Address Line 1": "378 Michael Lock", "Address Line 2": "Apt. 931", "City": "New Wendy", "Zipcode": "07271", "Company Website": "baker-mahoney.com", "Company Description": "revolutionize compelling vortals", "Phone": "08955396328", "State": "New York", "Company Name": "Rodriguez Inc"},
{"Address Line 1": "9391 Snyder Streets Apt. 124", "Address Line 2": "Suite 061", "City": "New Joseph", "Zipcode": "83800", "Company Website": "best-robinson.net", "Company Description": "maximize strategic communities", "Phone": "(632)972-9724x7978", "State": "Louisiana", "Company Name": "Anderson, Thompson and Rubio"},
{"Address Line 1": "077 Patterson Mountain Apt. 085", "Address Line 2": "Suite 889", "City": "New Leonardshire", "Zipcode": "28034", "Company Website": "yu-wood.org", "Company Description": "streamline virtual initiatives", "Phone": "+06(8)8662039234", "State": "Georgia", "Company Name": "Shields LLC"},
{"Address Line 1": "728 Michael Parkways Suite 219", "Address Line 2": "Apt. 894", "City": "Mccoyside", "Zipcode": "72204", "Company Website": "shah-allen.org", "Company Description": "re-intermediate impactful e-tailers", "Phone": "00225450169", "State": "New Mexico", "Company Name": "Dunn-Schneider"},
{"Address Line 1": "22138 Harris Union Suite 768", "Address Line 2": "Apt. 138", "City": "West Michelle", "Zipcode": "17922", "Company Website": "hull-davis.com", "Company Description": "evolve frictionless models", "Phone": "1-225-273-6432", "State": "Nevada", "Company Name": "Andrews, Wilcox and Morales"},
{"Address Line 1": "021 Dalton Place", "Address Line 2": "Apt. 905", "City": "Leonstad", "Zipcode": "08416", "Company Website": "joseph.com", "Company Description": "target frictionless mindshare", "Phone": "409-070-4555x3842", "State": "Iowa", "Company Name": "Smith Group"},
{"Address Line 1": "63588 Webb Ferry Suite 333", "Address Line 2": "Suite 737", "City": "Port Daniel", "Zipcode": "13750", "Company Website": "johnson-swanson.com", "Company Description": "strategize intuitive web services", "Phone": "878.404.9966", "State": "Massachusetts", "Company Name": "Gonzalez, Spencer and Gilmore"},
{"Address Line 1": "312 Williamson Summit Apt. 133", "Address Line 2": "Apt. 886", "City": "Carlstad", "Zipcode": "60220", "Company Website": "campbell.info", "Company Description": "seize collaborative infrastructures", "Phone": "(368)818-1354", "State": "Kentucky", "Company Name": "Thomas Ltd"},
{"Address Line 1": "69167 Jorge Rapids Suite 433", "Address Line 2": "Suite 179", "City": "New Brittany", "Zipcode": "72567", "Company Website": "ramos-novak.com", "Company Description": "unleash compelling partnerships", "Phone": "885.946.3609", "State": "Utah", "Company Name": "Barnes PLC"},
{"Address Line 1": "22049 Baker Lane", "Address Line 2": "Apt. 195", "City": "Port Soniachester", "Zipcode": "58522", "Company Website": "james.com", "Company Description": "visualize next-generation platforms", "Phone": "(975)285-1396x55087", "State": "West Virginia", "Company Name": "Fisher, Bell and Carson"},
{"Address Line 1": "74855 Ward Meadows", "Address Line 2": "Apt. 753", "City": "West Jennifermouth", "Zipcode": "46826", "Company Website": "gomez-moss.com", "Company Description": "redefine impactful infrastructures", "Phone": "995.248.2238x4677", "State": "South Dakota", "Company Name": "Woods, Wolfe and Hall"},
{"Address Line 1": "0600 Jill Valley Apt. 465", "Address Line 2": "Apt. 564", "City": "Lake Rodneyton", "Zipcode": "66512", "Company Website": "brown-smith.com", "Company Description": "extend collaborative infrastructures", "Phone": "820-259-5795x63325", "State": "North Carolina", "Company Name": "Owens-Torres"},
{"Address Line 1": "6837 Jillian Harbors", "Address Line 2": "Apt. 657", "City": "Lake James", "Zipcode": "82319", "Company Website": "hamilton-hull.com", "Company Description": "repurpose sticky eyeballs", "Phone": "220-298-4018x3107", "State": "North Dakota", "Company Name": "Nelson-Villa"},
{"Address Line 1": "455 Byrd Squares", "Address Line 2": "Apt. 051", "City": "Port Devon", "Zipcode": "39037", "Company Website": "schroeder.com", "Company Description": "synergize web-enabled technologies", "Phone": "05443858512", "State": "Delaware", "Company Name": "Pierce, Haley and Jimenez"},
{"Address Line 1": "3668 Jesse Ways", "Address Line 2": "Apt. 641", "City": "North Christopher", "Zipcode": "48709", "Company Website": "cole-delgado.net", "Company Description": "redefine viral models", "Phone": "04712489497", "State": "Maine", "Company Name": "Petty-Berry"},
{"Address Line 1": "4360 Schmidt Port", "Address Line 2": "Suite 240", "City": "Lake Carla", "Zipcode": "65321", "Company Website": "oliver.com", "Company Description": "whiteboard vertical paradigms", "Phone": "+54(5)4100849882", "State": "Tennessee", "Company Name": "Ford PLC"},
{"Address Line 1": "70028 Bradley Roads", "Address Line 2": "Apt. 700", "City": "Ellisfort", "Zipcode": "35163", "Company Website": "logan.org", "Company Description": "unleash sexy architectures", "Phone": "741-410-6208", "State": "Nevada", "Company Name": "Nguyen, Williams and Mason"},
{"Address Line 1": "99350 Gonzalez Lakes", "Address Line 2": "Suite 283", "City": "Campbellmouth", "Zipcode": "38718", "Company Website": "lee-mosley.com", "Company Description": "disintermediate extensible infrastructures", "Phone": "(537)422-1333x9387", "State": "Indiana", "Company Name": "Ramirez, Butler and Todd"},
{"Address Line 1": "66973 Lindsay Isle", "Address Line 2": "Suite 603", "City": "Lake Kevin", "Zipcode": "22458", "Company Website": "campbell.com", "Company Description": "optimize robust partnerships", "Phone": "1-417-926-1113x53576", "State": "Montana", "Company Name": "Brown-Thomas"},
{"Address Line 1": "63897 Wolf Unions", "Address Line 2": "Apt. 346", "City": "Port Lisa", "Zipcode": "97228", "Company Website": "martinez.com", "Company Description": "disintermediate proactive models", "Phone": "(893)238-3475", "State": "Missouri", "Company Name": "Scott-Smith"},
{"Address Line 1": "7765 Roy Trail", "Address Line 2": "Suite 816", "City": "South Raymondberg", "Zipcode": "75206", "Company Website": "orozco-schaefer.info", "Company Description": "redefine cross-platform metrics", "Phone": "1-496-374-5949", "State": "Montana", "Company Name": "French-Stephens"},
{"Address Line 1": "3954 Johnston Burg", "Address Line 2": "Apt. 776", "City": "Rodriguezstad", "Zipcode": "11325", "Company Website": "cochran.com", "Company Description": "embrace e-business vortals", "Phone": "1-148-432-3301", "State": "Wisconsin", "Company Name": "Oneill Ltd"},
{"Address Line 1": "940 Larsen Square", "Address Line 2": "Apt. 747", "City": "Richardfort", "Zipcode": "85348", "Company Website": "jackson.com", "Company Description": "scale 24/365 e-commerce", "Phone": "(464)279-1392", "State": "Pennsylvania", "Company Name": "Jackson, Mcmillan and Reynolds"},
{"Address Line 1": "699 Sanchez Mill", "Address Line 2": "Apt. 546", "City": "Crawfordfort", "Zipcode": "34872", "Company Website": "johnson.com", "Company Description": "leverage proactive solutions", "Phone": "498.930.0815", "State": "Texas", "Company Name": "Compton Ltd"},
{"Address Line 1": "7445 Kelly Knoll Apt. 611", "Address Line 2": "Apt. 418", "City": "North James", "Zipcode": "61513", "Company Website": "harper.com", "Company Description": "expedite enterprise web services", "Phone": "(821)368-3630x9521", "State": "Michigan", "Company Name": "Bradford-Russo"},
{"Address Line 1": "96333 Barber Loaf", "Address Line 2": "Apt. 324", "City": "West Parkerburgh", "Zipcode": "13548", "Company Website": "price.info", "Company Description": "strategize impactful interfaces", "Phone": "908.622.7355", "State": "Minnesota", "Company Name": "Howard Inc"},
{"Address Line 1": "83040 Donna Trace", "Address Line 2": "Suite 152", "City": "Nicholsmouth", "Zipcode": "34170", "Company Website": "martinez.net", "Company Description": "productize virtual vortals", "Phone": "1-102-959-2570x4171", "State": "North Dakota", "Company Name": "Terry-Lloyd"},
{"Address Line 1": "3353 Chad Ferry Apt. 544", "Address Line 2": "Apt. 357", "City": "New Richardmouth", "Zipcode": "65101", "Company Website": "ayers-norman.com", "Company Description": "synthesize dynamic schemas", "Phone": "647-210-7425x932", "State": "Kentucky", "Company Name": "Douglas, Rhodes and Cooper"},
{"Address Line 1": "632 Williams Islands Suite 365", "Address Line 2": "Suite 926", "City": "Piercebury", "Zipcode": "65818", "Company Website": "johnson.com", "Company Description": "incentivize dynamic models", "Phone": "934.625.7888x4732", "State": "Maryland", "Company Name": "Davis LLC"},
{"Address Line 1": "3553 Salas Mews Suite 774", "Address Line 2": "Apt. 841", "City": "Lake Tina", "Zipcode": "71433", "Company Website": "kelly.com", "Company Description": "grow virtual e-business", "Phone": "1-178-469-4124x9655", "State": "Montana", "Company Name": "Torres PLC"},
{"Address Line 1": "986 Scott Greens Apt. 890", "Address Line 2": "Apt. 173", "City": "Hudsonshire", "Zipcode": "28821", "Company Website": "mendez.com", "Company Description": "repurpose revolutionary networks", "Phone": "1-155-705-7288", "State": "North Carolina", "Company Name": "Garcia PLC"},
{"Address Line 1": "264 Wilkerson River Suite 451", "Address Line 2": "Suite 185", "City": "Joannaview", "Zipcode": "51115", "Company Website": "sanford.com", "Company Description": "synergize turn-key portals", "Phone": "06177013291", "State": "Indiana", "Company Name": "Herrera and Sons"},
{"Address Line 1": "42670 Nicholas Squares", "Address Line 2": "Apt. 359", "City": "East Christopherburgh", "Zipcode": "61074", "Company Website": "smith.com", "Company Description": "maximize next-generation technologies", "Phone": "421-058-3169", "State": "Colorado", "Company Name": "Walter, Hines and Gonzales"},
{"Address Line 1": "45591 Gonzalez Manor", "Address Line 2": "Suite 532", "City": "North Jeffreymouth", "Zipcode": "67198", "Company Website": "mendez.biz", "Company Description": "integrate B2B schemas", "Phone": "865-449-1343x32088", "State": "Wyoming", "Company Name": "Day and Sons"},
{"Address Line 1": "00025 Jacob Drives Apt. 746", "Address Line 2": "Suite 684", "City": "Baxterchester", "Zipcode": "32986", "Company Website": "gillespie-maldonado.com", "Company Description": "matrix integrated technologies", "Phone": "+31(9)5363243360", "State": "New Jersey", "Company Name": "Schultz-Knight"},
{"Address Line 1": "9826 Michael Glen", "Address Line 2": "Suite 708", "City": "West Geraldview", "Zipcode": "55612", "Company Website": "adams.com", "Company Description": "disintermediate wireless initiatives", "Phone": "00772685482", "State": "West Virginia", "Company Name": "Fox-Turner"},
{"Address Line 1": "40664 Scott Port", "Address Line 2": "Suite 124", "City": "Ashleyside", "Zipcode": "25795", "Company Website": "williams-hunter.org", "Company Description": "iterate B2C paradigms", "Phone": "792-485-6848", "State": "Nebraska", "Company Name": "Ryan, Nelson and Barrett"},
{"Address Line 1": "223 Chang Forest Suite 735", "Address Line 2": "Suite 166", "City": "North Meganmouth", "Zipcode": "39099", "Company Website": "craig.com", "Company Description": "innovate customized synergies", "Phone": "(050)773-0737x34102", "State": "Iowa", "Company Name": "Watts-Coleman"},
{"Address Line 1": "615 Wilcox Locks Apt. 436", "Address Line 2": "Apt. 863", "City": "North Michaelborough", "Zipcode": "98363", "Company Website": "rojas.com", "Company Description": "expedite seamless users", "Phone": "824.517.5674x0058", "State": "Maryland", "Company Name": "Newman PLC"},
{"Address Line 1": "4661 Weiss Grove Apt. 688", "Address Line 2": "Apt. 032", "City": "Barnestown", "Zipcode": "57231", "Company Website": "macdonald-tran.org", "Company Description": "brand seamless schemas", "Phone": "(059)024-0890x591", "State": "Maryland", "Company Name": "Scott PLC"},
{"Address Line 1": "6960 Morales Drive", "Address Line 2": "Apt. 840", "City": "Dianachester", "Zipcode": "20569", "Company Website": "gonzalez.biz", "Company Description": "architect global channels", "Phone": "541-733-6019", "State": "Arizona", "Company Name": "Robles-Anthony"},
{"Address Line 1": "6421 Martinez Stravenue", "Address Line 2": "Apt. 213", "City": "West Sheliabury", "Zipcode": "84097", "Company Website": "hall-cannon.net", "Company Description": "monetize one-to-one content", "Phone": "1-093-943-9442x455", "State": "Rhode Island", "Company Name": "Montoya, Johnson and Manning"},
{"Address Line 1": "5309 Bryan Coves Apt. 400", "Address Line 2": "Apt. 375", "City": "Bartonport", "Zipcode": "97892", "Company Website": "reynolds.com", "Company Description": "mesh innovative architectures", "Phone": "144.860.6415", "State": "Indiana", "Company Name": "Brown, Dorsey and Lewis"},
{"Address Line 1": "05827 Collins Parkways", "Address Line 2": "Suite 705", "City": "West Matthew", "Zipcode": "72544", "Company Website": "hancock.com", "Company Description": "scale clicks-and-mortar mindshare", "Phone": "(620)982-4220x87826", "State": "Illinois", "Company Name": "Ray, Nelson and Barry"},
{"Address Line 1": "97255 Hernandez Cove", "Address Line 2": "Apt. 958", "City": "Elliottberg", "Zipcode": "59311", "Company Website": "reilly.com", "Company Description": "deploy back-end methodologies", "Phone": "(308)811-6051x9114", "State": "Kentucky", "Company Name": "Harvey Inc"},
{"Address Line 1": "2780 Martin Mall Apt. 057", "Address Line 2": "Suite 943", "City": "Anthonyberg", "Zipcode": "35315", "Company Website": "peterson.com", "Company Description": "monetize plug-and-play methodologies", "Phone": "1-291-130-4206x9603", "State": "Arkansas", "Company Name": "Howard, Clark and Stokes"},
{"Address Line 1": "3023 Cynthia Spur", "Address Line 2": "Apt. 499", "City": "South Kevinburgh", "Zipcode": "35095", "Company Website": "lowe.com", "Company Description": "aggregate visionary e-business", "Phone": "(275)837-1565", "State": "Wyoming", "Company Name": "Rogers and Sons"},
{"Address Line 1": "5575 Hicks Village Suite 508", "Address Line 2": "Suite 547", "City": "Marystad", "Zipcode": "08339", "Company Website": "stewart.biz", "Company Description": "engineer proactive markets", "Phone": "(855)140-6806", "State": "Maryland", "Company Name": "Brown Ltd"},
{"Address Line 1": "7893 Jessica Viaduct", "Address Line 2": "Apt. 669", "City": "East Christine", "Zipcode": "77429", "Company Website": "strickland-little.biz", "Company Description": "monetize plug-and-play e-business", "Phone": "+73(0)7257805707", "State": "Maine", "Company Name": "Martin-Johnson"},
{"Address Line 1": "2059 Stephenson Island Apt. 470", "Address Line 2": "Apt. 646", "City": "Port Patrick", "Zipcode": "14593", "Company Website": "hooper.org", "Company Description": "exploit collaborative convergence", "Phone": "(052)131-0775", "State": "Idaho", "Company Name": "Costa and Sons"},
{"Address Line 1": "487 Ellis Roads Apt. 502", "Address Line 2": "Suite 717", "City": "Port Keith", "Zipcode": "46752", "Company Website": "davis-mendez.org", "Company Description": "streamline vertical applications", "Phone": "1-447-593-0475", "State": "Massachusetts", "Company Name": "George, Smith and Murillo"},
{"Address Line 1": "618 Christina Point", "Address Line 2": "Apt. 528", "City": "Lake Josephside", "Zipcode": "22910", "Company Website": "young.com", "Company Description": "implement synergistic action-items", "Phone": "1-736-104-5838x05164", "State": "Arkansas", "Company Name": "Hammond, Stafford and Burton"},
{"Address Line 1": "148 Stephanie Garden", "Address Line 2": "Apt. 545", "City": "Tamichester", "Zipcode": "27236", "Company Website": "guerra.com", "Company Description": "architect bricks-and-clicks e-commerce", "Phone": "1-847-752-9423", "State": "Indiana", "Company Name": "Sims-Tran"},
{"Address Line 1": "27097 White Ville Suite 628", "Address Line 2": "Apt. 400", "City": "West Michael", "Zipcode": "50075", "Company Website": "gray-schmidt.com", "Company Description": "implement best-of-breed networks", "Phone": "(586)208-3049x12085", "State": "South Carolina", "Company Name": "Martin, Brown and Mendez"},
{"Address Line 1": "08000 Molly Rue Suite 495", "Address Line 2": "Suite 501", "City": "Clarkmouth", "Zipcode": "38962", "Company Website": "short.biz", "Company Description": "repurpose real-time e-tailers", "Phone": "(918)489-8506x30391", "State": "Texas", "Company Name": "Campbell, Reed and Miranda"},
{"Address Line 1": "5452 Moreno Turnpike Suite 561", "Address Line 2": "Suite 834", "City": "Wattsport", "Zipcode": "89450", "Company Website": "cabrera-mosley.org", "Company Description": "orchestrate visionary mindshare", "Phone": "(404)382-2191x22659", "State": "New York", "Company Name": "Lowe, Freeman and Reynolds"},
{"Address Line 1": "13824 Sarah Burgs", "Address Line 2": "Apt. 241", "City": "West Kevinmouth", "Zipcode": "97202", "Company Website": "green.com", "Company Description": "innovate distributed convergence", "Phone": "+24(7)5824870334", "State": "Maryland", "Company Name": "Moran, Moore and Blankenship"},
{"Address Line 1": "239 Mark Throughway Apt. 217", "Address Line 2": "Suite 234", "City": "Wagnerborough", "Zipcode": "14109", "Company Website": "howard-wheeler.biz", "Company Description": "evolve customized experiences", "Phone": "632.647.1630x0683", "State": "California", "Company Name": "Lewis and Sons"},
{"Address Line 1": "764 Parsons Rapids", "Address Line 2": "Apt. 461", "City": "Phammouth", "Zipcode": "75975", "Company Website": "smith-nash.net", "Company Description": "enhance frictionless technologies", "Phone": "698-419-0588x870", "State": "Missouri", "Company Name": "Webster, Pugh and Snow"},
{"Address Line 1": "6977 Salinas View", "Address Line 2": "Apt. 144", "City": "New Andrea", "Zipcode": "93441", "Company Website": "davila.net", "Company Description": "benchmark clicks-and-mortar e-services", "Phone": "801.910.3403", "State": "Mississippi", "Company Name": "Hall Ltd"},
{"Address Line 1": "121 Castaneda Circles", "Address Line 2": "Suite 577", "City": "West Mark", "Zipcode": "07013", "Company Website": "shelton-aguilar.com", "Company Description": "re-contextualize customized eyeballs", "Phone": "1-395-983-8548x371", "State": "Pennsylvania", "Company Name": "Bennett, Ward and Joseph"},
{"Address Line 1": "9768 Craig Ville Apt. 919", "Address Line 2": "Apt. 799", "City": "Thompsonland", "Zipcode": "79380", "Company Website": "valencia.org", "Company Description": "disintermediate end-to-end experiences", "Phone": "+33(0)5933677429", "State": "Kentucky", "Company Name": "Garner, Patrick and Meyers"},
{"Address Line 1": "715 Carey Forest", "Address Line 2": "Suite 355", "City": "Jessicaland", "Zipcode": "89417", "Company Website": "leon.com", "Company Description": "morph mission-critical schemas", "Phone": "1-033-923-6783x12921", "State": "Colorado", "Company Name": "Pratt Ltd"},
{"Address Line 1": "2826 Rodriguez Park", "Address Line 2": "Suite 302", "City": "New Laceymouth", "Zipcode": "70951", "Company Website": "hamilton.info", "Company Description": "aggregate enterprise users", "Phone": "1-943-962-1514", "State": "West Virginia", "Company Name": "Chandler, Norton and Larson"},
{"Address Line 1": "6837 Andrews Extensions", "Address Line 2": "Suite 138", "City": "Hubbardberg", "Zipcode": "91824", "Company Website": "parks.com", "Company Description": "innovate B2C markets", "Phone": "882-923-1656x7820", "State": "Kansas", "Company Name": "Duncan-Clark"},
{"Address Line 1": "085 Tucker Well Suite 450", "Address Line 2": "Suite 314", "City": "New Dianaburgh", "Zipcode": "09280", "Company Website": "delgado-marquez.com", "Company Description": "leverage world-class mindshare", "Phone": "02181522161", "State": "Ohio", "Company Name": "Baker Ltd"},
{"Address Line 1": "36470 Colleen Wall Suite 042", "Address Line 2": "Suite 858", "City": "West Charlesberg", "Zipcode": "65476", "Company Website": "martinez-gray.info", "Company Description": "transition strategic networks", "Phone": "540-413-1474x156", "State": "North Dakota", "Company Name": "Hill-Carter"},
{"Address Line 1": "02580 Amanda Forks Apt. 575", "Address Line 2": "Apt. 278", "City": "Lopezborough", "Zipcode": "34314", "Company Website": "montgomery.com", "Company Description": "harness clicks-and-mortar models", "Phone": "(488)824-8210", "State": "Oklahoma", "Company Name": "Palmer Group"},
{"Address Line 1": "44378 Andrew Viaduct Apt. 848", "Address Line 2": "Apt. 141", "City": "Millerhaven", "Zipcode": "57359", "Company Website": "mcdowell-collier.org", "Company Description": "implement user-centric synergies", "Phone": "1-458-284-4047x112", "State": "Connecticut", "Company Name": "Hubbard-Rogers"},
{"Address Line 1": "9583 Shepherd Route", "Address Line 2": "Apt. 312", "City": "Maryshire", "Zipcode": "68610", "Company Website": "ford-bullock.com", "Company Description": "evolve magnetic paradigms", "Phone": "04915831671", "State": "California", "Company Name": "Yu, Jackson and Brown"},
{"Address Line 1": "23767 Tyler Rest", "Address Line 2": "Suite 379", "City": "Richardton", "Zipcode": "45974", "Company Website": "ramirez.biz", "Company Description": "morph visionary niches", "Phone": "1-982-221-0013x07693", "State": "Wyoming", "Company Name": "Ramirez Group"},
{"Address Line 1": "478 Hoffman Manor Apt. 716", "Address Line 2": "Suite 367", "City": "Ravenfort", "Zipcode": "21567", "Company Website": "frank.com", "Company Description": "transform sexy functionalities", "Phone": "01530344049", "State": "Hawaii", "Company Name": "Phillips-Andrews"},
{"Address Line 1": "18520 Huang Gateway", "Address Line 2": "Apt. 786", "City": "Flemingbury", "Zipcode": "54999", "Company Website": "owens.com", "Company Description": "embrace bleeding-edge eyeballs", "Phone": "1-867-020-4356", "State": "Mississippi", "Company Name": "Duke-Perez"},
{"Address Line 1": "231 Lee Estates", "Address Line 2": "Apt. 274", "City": "Mullinsberg", "Zipcode": "83368", "Company Website": "banks.com", "Company Description": "envisioneer one-to-one communities", "Phone": "03373994335", "State": "Florida", "Company Name": "Jackson-Jacobson"},
{"Address Line 1": "932 Smith Unions Apt. 065", "Address Line 2": "Apt. 941", "City": "Ballshire", "Zipcode": "40261", "Company Website": "allen-wright.com", "Company Description": "enhance killer vortals", "Phone": "1-069-595-4526x9222", "State": "New Hampshire", "Company Name": "Medina-Wong"},
{"Address Line 1": "55151 Bell Meadow Apt. 573", "Address Line 2": "Apt. 998", "City": "Rogersfurt", "Zipcode": "38070", "Company Website": "sims-lee.com", "Company Description": "evolve innovative e-commerce", "Phone": "(476)298-7923x99844", "State": "Florida", "Company Name": "Mueller Inc"},
{"Address Line 1": "4847 Hubbard Common", "Address Line 2": "Apt. 957", "City": "Dawnland", "Zipcode": "19594", "Company Website": "solis.com", "Company Description": "generate rich architectures", "Phone": "754-315-5095x5502", "State": "Delaware", "Company Name": "Howard-Allen"},
{"Address Line 1": "5326 Oliver Shores", "Address Line 2": "Apt. 710", "City": "Erikland", "Zipcode": "77890", "Company Website": "calderon-gonzalez.com", "Company Description": "transform customized functionalities", "Phone": "921-757-3878x545", "State": "Minnesota", "Company Name": "Warren LLC"},
{"Address Line 1": "624 Steele Roads", "Address Line 2": "Apt. 034", "City": "Mullinstown", "Zipcode": "59996", "Company Website": "norton.com", "Company Description": "re-intermediate compelling supply-chains", "Phone": "469.754.3888x34264", "State": "South Dakota", "Company Name": "Moore-Russell"},
{"Address Line 1": "5613 Harris Mountains", "Address Line 2": "Suite 630", "City": "Bushchester", "Zipcode": "22303", "Company Website": "smith.info", "Company Description": "grow world-class channels", "Phone": "(244)737-0722x136", "State": "Maryland", "Company Name": "Jones, Barrera and Herrera"},
{"Address Line 1": "0811 Jeffrey Field", "Address Line 2": "Suite 176", "City": "Johntown", "Zipcode": "04829", "Company Website": "larson-bowen.com", "Company Description": "drive compelling info-mediaries", "Phone": "(617)510-8665", "State": "Kentucky", "Company Name": "Lyons, Green and Livingston"},
{"Address Line 1": "8524 Snyder Plaza", "Address Line 2": "Apt. 032", "City": "Lake Tiffanytown", "Zipcode": "71364", "Company Website": "roy.com", "Company Description": "enhance best-of-breed users", "Phone": "07190276051", "State": "Massachusetts", "Company Name": "Ochoa Ltd"},
{"Address Line 1": "15231 Stephanie Squares Suite 972", "Address Line 2": "Apt. 591", "City": "East Adrian", "Zipcode": "61823", "Company Website": "krueger.com", "Company Description": "envisioneer cutting-edge action-items", "Phone": "320-999-7186", "State": "Iowa", "Company Name": "Reese-Avery"},
{"Address Line 1": "53673 Dalton Inlet Suite 611", "Address Line 2": "Apt. 252", "City": "South Adamtown", "Zipcode": "95136", "Company Website": "brooks.org", "Company Description": "harness granular bandwidth", "Phone": "880.134.8231", "State": "Minnesota", "Company Name": "Wallace, Cisneros and Woods"},
{"Address Line 1": "5559 Tyler Mission", "Address Line 2": "Apt. 767", "City": "Clarkview", "Zipcode": "63661", "Company Website": "roy.com", "Company Description": "mesh 24/7 bandwidth", "Phone": "504-685-8465", "State": "Arizona", "Company Name": "Norton, Hernandez and Proctor"},
{"Address Line 1": "4448 John Plain Apt. 865", "Address Line 2": "Apt. 350", "City": "Marshallbury", "Zipcode": "65489", "Company Website": "shaw.com", "Company Description": "re-intermediate extensible convergence", "Phone": "02940646268", "State": "California", "Company Name": "Aguilar, Campbell and Mills"},
{"Address Line 1": "7615 Robert Trail", "Address Line 2": "Apt. 321", "City": "Jonesville", "Zipcode": "77241", "Company Website": "gomez-coleman.biz", "Company Description": "unleash next-generation supply-chains", "Phone": "003.459.1199", "State": "North Carolina", "Company Name": "Sutton, Hodge and Savage"},
{"Address Line 1": "481 Stanley Fall", "Address Line 2": "Suite 503", "City": "Mccoyfurt", "Zipcode": "19903", "Company Website": "cox.biz", "Company Description": "transition distributed paradigms", "Phone": "372-016-5624x29605", "State": "South Carolina", "Company Name": "Maxwell PLC"},
{"Address Line 1": "42465 King Heights", "Address Line 2": "Suite 139", "City": "Paceside", "Zipcode": "57894", "Company Website": "ramirez-watson.com", "Company Description": "unleash 24/7 technologies", "Phone": "(182)640-7299x9429", "State": "Idaho", "Company Name": "Rogers, Johnson and Avila"},
{"Address Line 1": "83041 Ruth Branch", "Address Line 2": "Apt. 068", "City": "Michaelastad", "Zipcode": "55373", "Company Website": "clark-richards.info", "Company Description": "utilize next-generation vortals", "Phone": "+99(4)6164861218", "State": "North Dakota", "Company Name": "Garcia-Sanford"},
{"Address Line 1": "1947 Baxter Circle", "Address Line 2": "Suite 069", "City": "West Michellefurt", "Zipcode": "32002", "Company Website": "edwards.com", "Company Description": "exploit cross-media solutions", "Phone": "1-512-514-0599x16923", "State": "Pennsylvania", "Company Name": "Johnston, Smith and Hamilton"},
{"Address Line 1": "822 Jorge Wells Apt. 736", "Address Line 2": "Suite 400", "City": "Johnsonton", "Zipcode": "08521", "Company Website": "reed.net", "Company Description": "leverage value-added supply-chains", "Phone": "(366)697-7639x9045", "State": "Massachusetts", "Company Name": "Hancock, Mcintosh and Gardner"},
{"Address Line 1": "1404 Le Mill Suite 504", "Address Line 2": "Apt. 226", "City": "East Michael", "Zipcode": "36070", "Company Website": "li.info", "Company Description": "aggregate customized users", "Phone": "115-068-3833", "State": "Maine", "Company Name": "Moreno, Johnson and Bailey"},
{"Address Line 1": "4102 Justin Mountain Apt. 964", "Address Line 2": "Apt. 228", "City": "Hectormouth", "Zipcode": "07679", "Company Website": "hernandez.com", "Company Description": "matrix cutting-edge systems", "Phone": "088-099-5769x5834", "State": "Iowa", "Company Name": "Lambert Group"},
{"Address Line 1": "9234 Kerr Curve Suite 448", "Address Line 2": "Apt. 747", "City": "Christensenville", "Zipcode": "66969", "Company Website": "petersen-ramos.com", "Company Description": "re-contextualize vertical markets", "Phone": "1-843-626-7286", "State": "South Carolina", "Company Name": "Carpenter-Navarro"},
{"Address Line 1": "58230 Nicholas Vista Suite 398", "Address Line 2": "Suite 272", "City": "West Alexismouth", "Zipcode": "81595", "Company Website": "cooper-ruiz.com", "Company Description": "innovate granular models", "Phone": "953.866.0676x61736", "State": "Indiana", "Company Name": "Randolph, Rivera and Rogers"},
{"Address Line 1": "04371 Jeffrey Station Suite 059", "Address Line 2": "Apt. 612", "City": "Stewartview", "Zipcode": "65795", "Company Website": "smith-ramsey.com", "Company Description": "iterate holistic portals", "Phone": "093.320.7152", "State": "Utah", "Company Name": "Riley, Collins and Patton"},
{"Address Line 1": "3460 Stephen Lake Apt. 450", "Address Line 2": "Apt. 095", "City": "Williamstad", "Zipcode": "86368", "Company Website": "murray-williams.info", "Company Description": "matrix dynamic action-items", "Phone": "042-562-8057x0078", "State": "New Hampshire", "Company Name": "Reilly Ltd"},
{"Address Line 1": "32405 Jorge Inlet Apt. 247", "Address Line 2": "Suite 997", "City": "Barnettmouth", "Zipcode": "41897", "Company Website": "smith-brown.biz", "Company Description": "drive seamless methodologies", "Phone": "162.177.9293x96859", "State": "North Dakota", "Company Name": "Marshall and Sons"}]
